ZHUHAI-1 01 (CAS-4A)    
1 42761U 17034D   23242.42339750  .00008987  00000+0  43460-3 0  9992
2 42761  43.0138  61.1169 0012640 228.2014 131.7755 15.18750495342921
MAX VALIER SAT          
1 42778U 17036P   23241.81763707  .00024336  00000+0  56015-3 0  9993
2 42778  97.1479 275.0827 0008103 175.5607 184.5714 15.42588170344069
RADFXSAT (FOX-1B)       
1 43017U 17073E   23241.61683112  .00005833  00000+0  40292-3 0  9991
2 43017  97.6192 123.0741 0229804 186.1659 173.6721 14.87122817312093
FOX-1D (AO-92)          
1 43137U 18004AC  23241.78251134  .00045085  00000+0  74443-3 0  9990
2 43137  97.3229 322.0597 0004750 217.7968 142.2952 15.52119690313704
DIWATA-2B               
1 43678U 18084H   23242.35259313  .00001947  00000+0  18977-3 0  9998
2 43678  98.0333  27.8717 0008195 277.6438  82.3850 14.93688253263330
ES'HAIL 2               
1 43700U 18090A   23241.75725008  .00000130  00000+0  00000+0 0  9990
2 43700   0.0163 129.1843 0002470  58.6346  88.2738  1.00271696 17421
FOX-1CLIFF (AO-95)      
1 43770U 18099N   23241.72634127  .00005226  00000+0  41683-3 0  9991
2 43770  97.5762 301.3067 0013183 261.3507  98.6223 15.00667907258634
ITASAT 1                
1 43786U 18099AE  23241.74747498  .00003118  00000+0  25371-3 0  9990
2 43786  97.5702 302.3507 0015517 240.7975 119.1697 15.00170353258670
JY1SAT (JO-97)          
1 43803U 18099AX  23241.83114743  .00005253  00000+0  40755-3 0  9996
2 43803  97.5705 302.5683 0011886 204.2988 155.7678 15.01733452258743
UWE-4                   
1 43880U 18111E   23241.73935622  .00005985  00000+0  44621-3 0  9990
2 43880  97.6283 145.7975 0016326 284.4971  75.4443 15.03153823255416
NEXUS (FO-99)           
1 43937U 19003F   23242.03050886  .00094139  00000+0  98491-3 0  9991
2 43937  97.0780 268.8340 0007103  23.0891 337.0686 15.64112987257544
JAISAT-1                
1 44419U 19038F   23241.70386916  .00028095  00000+0  85044-3 0  9992
2 44419  97.6771 226.0881 0015539  52.5145 307.7507 15.34029358229791
DUCHIFAT-3              
1 44854U 19089C   23242.42125783  .00008573  00000+0  55772-3 0  9998
2 44854  36.9627   7.2132 0007859 208.9907 151.0401 15.07525867204036
CAS-6 (TIANQIN 1)       
1 44881U 19093C   23242.39993512  .00001060  00000+0  13767-3 0  9994
2 44881  97.8579 319.5836 0014424 190.8007 169.2899 14.82707668199795
RS-44 & BREEZE-KM R/B   
1 44909U 19096E   23241.63534165  .00000030  00000+0  75530-4 0  9992
2 44909  82.5207 299.1480 0217632  15.5596 345.2055 12.79722166171553
BY70-2                  
1 45857U 20042B   23242.38922184  .00020872  00000+0  19829-2 0  9996
2 45857  97.9238 322.6891 0009756 124.9140 235.2998 14.93475222170609
SALSAT                  
1 46495U 20068K   23241.83651327  .00003844  00000+0  25057-3 0  9991
2 46495  97.7738 190.6732 0013831 224.2399 135.7724 15.08452455160179
RADFXSAT-2 (AO-109)     
1 47311U 21002C   23242.27612482  .00029550  00000+0  66331-3 0  9998
2 47311  60.6797 132.8482 0008271 332.3056  27.7599 15.43230375145711
UVSQ-SAT                
1 47438U 21006AB  23242.08511100  .00015614  00000+0  59497-3 0  9997
2 47438  97.3782 298.2224 0009931 172.3152 187.8240 15.26750628143916
LEDSAT                  
1 49069U 21073D   23242.17019831  .00007771  00000+0  41163-3 0  9993
2 49069  97.4777 311.8377 0022590 221.1231 138.8299 15.15461085112102
XW-3 (CAS-9)            
1 50466U 21131B   23242.43207696  .00000555  00000+0  19420-3 0  9992
2 50466  98.5493 323.7427 0003061 279.0629  81.0212 14.39024068 88034
TEVEL-3                 
1 50988U 22002E   23242.44388196  .00019697  00000+0  71757-3 0  9993
2 50988  97.4278 309.0389 0005878 339.3820  20.7182 15.28218760 90095
TEVEL-8                 
1 50989U 22002F   23242.40053756  .00020462  00000+0  74697-3 0  9999
2 50989  97.4294 309.0630 0005899 338.4259  21.6731 15.28142005 90089
TEVEL-5                 
1 50998U 22002Q   23242.41072707  .00021641  00000+0  76492-3 0  9992
2 50998  97.4271 309.4843 0006839 330.6506  29.4349 15.29184462 90128
TEVEL-6                 
1 50999U 22002R   23242.40929143  .00021569  00000+0  76247-3 0  9994
2 50999  97.4270 309.4758 0006847 330.3733  29.7118 15.29181145 90123
TEVEL-1                 
1 51013U 22002AF  23242.45614972  .00019870  00000+0  72506-3 0  9994
2 51013  97.4270 308.9810 0005795 339.1145  20.9857 15.28162876 90097
TEVEL-7                 
1 51062U 22002CG  23242.40044757  .00020510  00000+0  74815-3 0  9999
2 51062  97.4289 309.0341 0005863 337.8066  22.2919 15.28167875 90082
TEVEL-4                 
1 51063U 22002CH  23242.40947759  .00020378  00000+0  74491-3 0  9996
2 51063  97.4286 309.0184 0005890 337.6086  22.4896 15.28098077 90088
TEVEL-2                 
1 51069U 22002CP  23242.31447481  .00019623  00000+0  71484-3 0  9999
2 51069  97.4275 308.8791 0005838 339.9619  20.1391 15.28220780 90074
GREENCUBE               
1 53106U 22080B   23241.35995544 -.00000003  00000+0  00000+0 0  9995
2 53106  70.1509 294.2974 0008593 172.8952 187.1830  6.42557086 26453
CYCLOPS (RS29S SXC3-21*)
1 53373U 22096D   23242.40003361  .00038850  00000+0  84035-3 0  9996
2 53373  97.4043 149.7903 0003133 102.7519 257.4079 15.44377218 59121
MONITOR-1 (RS32S SXC3-*)
1 53374U 22096E   23242.42183688  .00035318  00000+0  80137-3 0  9995
2 53374  97.4015 149.5414 0002788 115.5460 244.6076 15.42975366 59118
KUZBASS-300 (RS34S SXC*)
1 53375U 22096F   23242.42730436  .00025527  00000+0  63979-3 0  9991
2 53375  97.4052 149.0002 0002428 112.9343 247.2160 15.40036612 59078
UTMN (RS23S SXC3-216)   
1 53376U 22096G   23242.42100239  .00028202  00000+0  68987-3 0  9991
2 53376  97.4046 149.1499 0002596 107.4151 252.7379 15.40755775 59087
MIET-AIS (RS28S SXC3-2*)
1 53377U 22096H   23242.40180118  .00021628  00000+0  55716-3 0  9995
2 53377  97.4061 148.8983 0002418 113.4740 246.6760 15.39229525 59064
KAI-1 (RS26S)           
1 53378U 22096J   23242.39141804  .00019694  00000+0  54053-3 0  9996
2 53378  97.4079 148.4861 0002263 112.6783 247.4701 15.37291728 59034
ISOI (RS19S SXC3-219)   
1 53381U 22096M   23242.37178206  .00025456  00000+0  63478-3 0  9998
2 53381  97.4053 149.2139 0005087 125.1333 235.0390 15.40182108 59081
CUBESX-HSE-2 (RS21S)    
1 53383U 22096P   23242.38172093  .00026701  00000+0  64918-3 0  9993
2 53383  97.4051 149.3657 0005552 126.0289 234.1472 15.40939503 59095
SIREN (RS30S SXC3-217)  
1 53384U 22096Q   23242.43493330  .00022340  00000+0  58299-3 0  9990
2 53384  97.4067 149.0177 0005536 125.7797 234.3964 15.38813011 59077
GEOSCAN-EDELVEIS (RS20S)
1 53385U 22096R   23242.41902640  .00041829  00000+0  85274-3 0  9994
2 53385  97.4026 150.4941 0006924 117.8028 242.3924 15.46086024 59204
VIZARD (RS33S SXC3-215) 
1 53386U 22096S   23242.42516736  .00063096  00000+0  10300-2 0  9990
2 53386  97.4027 151.7107 0007606 120.1750 240.0257 15.52339639 59272
CAS-5A (FO-118)         
1 54684U 22167C   23242.38651996  .00011899  00000+0  62385-3 0  9999
2 54684  97.5715  19.5852 0013889  80.7613 279.5190 15.15841127 39917
STRATOSAT-TK 1 (RS52S)  
1 57167U 23091B   23242.36464763  .00007989  00000+0  57850-3 0  9993
2 57167  97.6581 292.4542 0018320  38.3479 321.9046 15.04118254  9588
UMKA 1 (RS40S)          
1 57172U 23091G   23242.36686228  .00004218  00000+0  31013-3 0  9996
2 57172  97.6578 292.4515 0018575  37.0479 323.2025 15.03812441  9588
CUBESX-HSE 3 (RS42S)    
1 57178U 23091N   23242.37191152  .00004783  00000+0  35123-3 0  9993
2 57178  97.6611 292.4792 0019528  32.0898 328.1512 15.03779159  9581
MONITOR-4 (RS57S)       
1 57182U 23091S   23242.37470255  .00004165  00000+0  30717-3 0  9990
2 57182  97.6599 292.4672 0019846  33.0633 327.1829 15.03690036  9585
MONITOR-2 (RS39S)       
1 57184U 23091U   23242.40547020  .00003292  00000+0  23934-3 0  9994
2 57184  97.6632 292.5789 0015815  30.1707 330.0426 15.04442266  9595
SVYATOBOR 1 (RS60S)     
1 57187U 23091X   23242.39568910  .00004066  00000+0  29209-3 0  9997
2 57187  97.6630 292.5924 0015531  29.1293 331.0796 15.04754763  9599
VIZARD-METEO (RS38S)    
1 57189U 23091Z   23242.38119988  .00004293  00000+0  30502-3 0  9995
2 57189  97.6610 292.6048 0014305  26.8568 333.3396 15.05150958  9592
NANOZOND 1 (RS49S)      
1 57190U 23091AA  23242.37056182  .00006979  00000+0  48828-3 0  9995
2 57190  97.6582 292.5922 0012926  32.7319 327.4706 15.05522728  9596
POLYTECH-UNIVERSE 3 (R*)
1 57191U 23091AB  23242.37538210  .00002797  00000+0  20842-3 0  9993
2 57191  97.6575 292.4416 0019478  37.6755 322.5830 15.03575109  9585
UTMN 2 (RS27S)          
1 57203U 23091AP  23242.38477146  .00004133  00000+0  29462-3 0  9991
2 57203  97.6614 292.6002 0014704  27.2637 332.9358 15.05044966  9592
ARCCUBE 1 (RS25S)       
1 57205U 23091AR  23242.37169080  .00007539  00000+0  52656-3 0  9991
2 57205  97.6565 292.5774 0013307  34.5118 325.6970 15.05556387  9591
KUZGTU 1 (RS47S)        
1 57217U 23091AV  23242.37019426  .00004907  00000+0  35997-3 0  9997
2 57217  97.6586 292.4608 0019404  33.3578 326.8866 15.03809594  9588
